[{"OBJECT_NAME":"STARLINK-4487","OBJECT_ID":"2022-101E","EPOCH":"2026-03-09T07:18:57.293856","MEAN_MOTION":15.08838884,"ECCENTRICITY":0.00012542,"INCLINATION":53.2164,"RA_OF_ASC_NODE":75.8484,"ARG_OF_PERICENTER":88.8542,"MEAN_ANOMALY":271.2593,"EPHEMERIS_TYPE":0,"CLASSIFICATION_TYPE":"U","NORAD_CAT_ID":53531,"ELEMENT_SET_NO":999,"REV_AT_EPOCH":19610,"BSTAR":-1.7717794e-5,"MEAN_MOTION_DOT":-5.7e-6,"MEAN_MOTION_DDOT":0},{"OBJECT_NAME":"CZ-4C R\/B","OBJECT_ID":"2023-149B","EPOCH":"2026-03-09T22:22:25.562784","MEAN_MOTION":14.98980057,"ECCENTRICITY":0.01068179,"INCLINATION":98.1836,"RA_OF_ASC_NODE":72.6086,"ARG_OF_PERICENTER":338.7551,"MEAN_ANOMALY":20.9251,"EPHEMERIS_TYPE":0,"CLASSIFICATION_TYPE":"U","NORAD_CAT_ID":57959,"ELEMENT_SET_NO":999,"REV_AT_EPOCH":13373,"BSTAR":0.00028701864,"MEAN_MOTION_DOT":3.84e-5,"MEAN_MOTION_DDOT":0}]
